ONEWEB-0228             
1 48780U 21045P   24151.20508505 -.00000220  00000+0 -61909-3 0  9990
2 48780  87.9049  48.0278 0001911  84.8474 275.2874 13.15548173145982
